STARLINK-36697          
1 67698U 26025F   26064.81184767  .00265163  00000+0  13392-2 0  9993
2 67698  97.2840 176.2622 0001098  68.4800 291.6585 15.80884822  5331
STARLINK-36716          
1 67699U 26025G   26064.91668981  .00071998  00000+0  47988-3 0  9990
2 67699  97.2844 176.3585 0001318  88.8801 111.5871 15.75172449  5402
STARLINK-36712          
1 67700U 26025H   26064.83757371  .00288376  00000+0  18707-2 0  9992
2 67700  97.2845 176.2249 0001436  75.6837 284.4588 15.75177143  5339
STARLINK-36713          
1 67701U 26025J   26064.77581441  .00368305  00000+0  23505-2 0  9992
2 67701  97.2850 176.1559 0001770  56.3413 303.8021 15.75334045  5330
STARLINK-36695          
1 67702U 26025K   26064.84145220  .00349004  00000+0  22471-2 0  9998
2 67702  97.2860 176.2178 0000857  92.5114 267.6249 15.75181901  5335
STARLINK-36630          
1 67703U 26025L   26064.74061614  .00003915  00000+0  21206-4 0  9997
2 67703  97.2861 176.2053 0001461  66.8263 293.3159 15.80780668  5326
STARLINK-36338          
1 67704U 26025M   26064.24817767  .00300071  00000+0  19334-2 0  9991
2 67704  97.2845 175.6477 0001245 176.5980 183.5294 15.75302844  5248
STARLINK-36316          
1 67705U 26025N   26064.76628058  .00232690  00000+0  15147-2 0  9991
2 67705  97.2848 176.1690 0001401  53.9300 306.2095 15.75252468  5321
STARLINK-36707          
1 67706U 26025P   26064.91668981  .00065494  00000+0  43677-3 0  9994
2 67706  97.2850 176.3751 0001426  91.0241 153.4379 15.75181000  5093
STARLINK-36645          
1 67707U 26025Q   26064.83368584  .00399709  00000+0  25585-2 0  9998
2 67707  97.2856 176.2296 0001211 155.8162 204.3160 15.75177742  5335
STARLINK-36287          
1 67708U 26025R   26064.91668981 -.00017445  00000+0 -11624-3 0  9998
2 67708  97.2857 176.4039 0001522  78.4741 235.9827 15.75205756  5407
STARLINK-36698          
1 67709U 26025S   26064.91668981 -.00066829  00000+0 -45027-3 0  9993
2 67709  97.2858 176.4223 0001597  74.1867 284.2808 15.75210150  5251
